CZ-2D R/B               
1 28738U 05024B   17345.71482533  .00000613  00000-0  40015-4 0  9996
2 28738  97.4773  18.9291 0013702 111.2700 248.9995 15.11382832682604
